[{"OBJECT_NAME":"ION SCV-004","OBJECT_ID":"2022-002K","EPOCH":"2026-03-09T16:32:03.244416","MEAN_MOTION":15.29369331,"ECCENTRICITY":0.00072157,"INCLINATION":97.2961,"RA_OF_ASC_NODE":128.2294,"ARG_OF_PERICENTER":1.6783,"MEAN_ANOMALY":358.448,"EPHEMERIS_TYPE":0,"CLASSIFICATION_TYPE":"U","NORAD_CAT_ID":50993,"ELEMENT_SET_NO":999,"REV_AT_EPOCH":23008,"BSTAR":0.00023198467,"MEAN_MOTION_DOT":6.538e-5,"MEAN_MOTION_DDOT":0},{"OBJECT_NAME":"STARLINK-32883","OBJECT_ID":"2025-018A","EPOCH":"2026-03-09T23:27:33.048576","MEAN_MOTION":15.30195782,"ECCENTRICITY":0.00012183,"INCLINATION":53.1608,"RA_OF_ASC_NODE":308.179,"ARG_OF_PERICENTER":89.2237,"MEAN_ANOMALY":270.8903,"EPHEMERIS_TYPE":0,"CLASSIFICATION_TYPE":"U","NORAD_CAT_ID":62806,"ELEMENT_SET_NO":999,"REV_AT_EPOCH":6413,"BSTAR":0.00073518802,"MEAN_MOTION_DOT":0.00021475,"MEAN_MOTION_DDOT":0}]
